[{"OBJECT_NAME":"STARLINK-5937","OBJECT_ID":"2023-083AY","EPOCH":"2026-03-09T22:52:08.997024","MEAN_MOTION":15.0333741,"ECCENTRICITY":0.00020736,"INCLINATION":43.0002,"RA_OF_ASC_NODE":67.0252,"ARG_OF_PERICENTER":253.4788,"MEAN_ANOMALY":106.5827,"EPHEMERIS_TYPE":0,"CLASSIFICATION_TYPE":"U","NORAD_CAT_ID":56922,"ELEMENT_SET_NO":999,"REV_AT_EPOCH":15186,"BSTAR":0.0082673876,"MEAN_MOTION_DOT":0.00115779,"MEAN_MOTION_DDOT":0},{"OBJECT_NAME":"PEGASUS R\/B","OBJECT_ID":"1998-071B","EPOCH":"2026-03-09T18:27:50.570784","MEAN_MOTION":15.03047703,"ECCENTRICITY":0.0004531,"INCLINATION":69.9123,"RA_OF_ASC_NODE":198.9358,"ARG_OF_PERICENTER":7.5622,"MEAN_ANOMALY":352.5606,"EPHEMERIS_TYPE":0,"CLASSIFICATION_TYPE":"U","NORAD_CAT_ID":25561,"ELEMENT_SET_NO":999,"REV_AT_EPOCH":48091,"BSTAR":0.00030278547,"MEAN_MOTION_DOT":3.992e-5,"MEAN_MOTION_DDOT":0}]
